STARLINK-31407          
1 59250U 24049V   26068.21737184  .00001319  00000+0  57445-4 0  9997
2 59250  42.9986 134.9722 0001533 280.0581  80.0097 15.27577137112457
FLOCK 4G-26             
1 62633U 25009AA  26068.80489479  .00011283  00000+0  42469-3 0  9999
2 62633  97.4054 151.3913 0001988 299.1273  60.9767 15.27281631 63733
